STARLINK-35610          
1 66428U 25259G   26183.51704944  .00005367  00000+0  20438-3 0  9993
2 66428  43.0037 345.7802 0001821 276.3019  83.7625 15.27583686 37051
STARLINK-35533          
1 66429U 25259H   26183.51319482  .00006611  00000+0  24969-3 0  9999
2 66429  43.0028 345.7502 0001552 261.5661  98.5015 15.27562288 37051
STARLINK-35470          
1 66430U 25259J   26183.50934162  .00012733  00000+0  47151-3 0  9998
2 66430  43.0020 345.7196 0001152 238.2277 121.8462 15.27575065 37057
STARLINK-35439          
1 66431U 25259K   26183.50677340  .00012281  00000+0  45519-3 0  9995
2 66431  43.0026 345.7015 0001098 248.8560 111.2175 15.27570115 37050
STARLINK-35446          
1 66432U 25259L   26183.50548854  .00039547  00000+0  14407-2 0  9998
2 66432  43.0018 345.6902 0001229 232.8161 127.2578 15.27539632 37055
STARLINK-35457          
1 66433U 25259M   26183.50291652  .00009159  00000+0  34204-3 0  9994
2 66433  43.0023 345.6702 0001495 259.7593 100.3090 15.27570291 37059
STARLINK-35389          
1 66434U 25259N   26183.50163287  .00029649  00000+0  10827-2 0  9997
2 66434  43.0027 345.6609 0001485 255.6583 104.4104 15.27576933 37053
STARLINK-35502          
1 66435U 25259P   26183.49519688 -.00005135  00000+0 -17733-3 0  9996
2 66435  43.0024 345.6102 0001348 251.6360 108.4345 15.27556050 37055
STARLINK-35501          
1 66436U 25259Q   26183.50034104 -.00000868  00000+0 -22044-4 0  9994
2 66436  42.9999 345.6478 0001129 248.9521 111.1210 15.27571219 37052
STARLINK-35474          
1 66437U 25259R   26183.46965218  .00007099  00000+0  26717-3 0  9990
2 66437  42.9985 346.2853 0000529 260.6667  99.4124 15.27587923 37047
STARLINK-34681          
1 66438U 25259S   26183.52862094  .00018879  00000+0  69400-3 0  9990
2 66438  43.0014 345.8640 0002201 282.0146  78.0459 15.27569604 36949
STARLINK-35327          
1 66439U 25259T   26183.49392217  .00017390  00000+0  64051-3 0  9996
2 66439  43.0011 345.6015 0001028 275.0389  85.0345 15.27553263 37057
STARLINK-35405          
1 66440U 25259U   26183.52347501  .00020529  00000+0  75349-3 0  9998
2 66440  42.9996 345.8213 0002396 283.7906  76.2679 15.27577818 37055
STARLINK-35426          
1 66441U 25259V   26182.92728015  .00020307  00000+0  74493-3 0  9998
2 66441  43.0028 349.0885 0001682 278.4279  81.6382 15.27602188 36965
STARLINK-34724          
1 66442U 25259W   26183.49149816  .00013682  00000+0  50599-3 0  9997
2 66442  43.0001 346.4441 0000901 267.4128  92.6620 15.27566585 37047
STARLINK-35219          
1 66443U 25259X   26183.16070286  .00023479  00000+0  85958-3 0  9998
2 66443  43.0037 348.2583 0001115 292.7381  67.3353 15.27596638 36889
STARLINK-35360          
1 66444U 25259Y   26183.49777368  .00009210  00000+0  34395-3 0  9996
2 66444  43.0016 345.6245 0001502 255.3911 104.6774 15.27562732 37057
STARLINK-34698          
1 66445U 25259Z   26183.48378903  .00000481  00000+0  27013-4 0  9999
2 66445  43.0007 346.3848 0001071 272.2667  87.8062 15.27569269 36932
STARLINK-34986          
1 66446U 25259AA  26183.47736903  .00001057  00000+0  47985-4 0  9997
2 66446  43.0006 346.3407 0001677 296.4000  63.6680 15.27551420 37045
STARLINK-34851          
1 66447U 25259AB  26183.49021157  .00007229  00000+0  27194-3 0  9994
2 66447  43.0003 346.4315 0000435 252.2706 107.8098 15.27582843 36930
STARLINK-35355          
1 66448U 25259AC  26183.48507426  .00012001  00000+0  44505-3 0  9991
2 66448  42.9981 346.3932 0000671 270.4553  89.6222 15.27568940 37043
STARLINK-34720          
1 66449U 25259AD  26183.47993534  .00026362  00000+0  96461-3 0  9993
2 66449  42.9986 346.3551 0000661 280.8699  79.2078 15.27561408 36934
STARLINK-35334          
1 66450U 25259AE  26183.47607708 -.00005624  00000+0 -19513-3 0  9993
2 66450  43.0005 346.3260 0001201 267.1349  92.9365 15.27556375 37049
VIASAT-3 F2             
1 66454U 25261A   26183.28179892 -.00000223  00000+0  00000+0 0  9993
2 66454   0.0138 141.9959 0000723  29.2556 131.5440  1.00271412  2949
STARLINK-35643          
1 66456U 25262A   26182.92591643  .00020292  00000+0  74447-3 0  9995
2 66456  43.0031  11.3518 0002003 259.2219 100.8407 15.27598026 36378
STARLINK-35466          
1 66457U 25262B   26183.57079225  .00021376  00000+0  78473-3 0  9992
2 66457  43.0015   7.5889 0001567 256.9877 103.0800 15.27551320 36476
STARLINK-35684          
1 66458U 25262C   26183.57336585  .00018772  00000+0  68962-3 0  9996
2 66458  43.0007   7.6048 0001380 242.1233 117.9479 15.27594974 36470
STARLINK-35449          
1 66459U 25262D   26183.56436800  .00017559  00000+0  64634-3 0  9991
2 66459  42.9998   7.5382 0001064 239.3710 120.7037 15.27566205 36473
STARLINK-35424          
1 66460U 25262E   26183.54509433  .00013827  00000+0  51129-3 0  9993
2 66460  43.0000   7.3943 0000986 289.0157  71.0588 15.27563932 36474
STARLINK-35132          
1 66461U 25262F   26183.54252557  .00012440  00000+0  46095-3 0  9992
2 66461  42.9987   7.3748 0000847 273.9947  86.0808 15.27569574 36474
