OBJECT_NAME,OBJECT_ID,EPOCH,MEAN_MOTION,ECCENTRICITY,INCLINATION,RA_OF_ASC_NODE,ARG_OF_PERICENTER,MEAN_ANOMALY,EPHEMERIS_TYPE,CLASSIFICATION_TYPE,NORAD_CAT_ID,ELEMENT_SET_NO,REV_AT_EPOCH,BSTAR,MEAN_MOTION_DOT,MEAN_MOTION_DDOT
STARLINK-35610,2025-259G,2026-07-02T12:24:33.071616,15.27583686,.00018218,43.0037,345.7802,276.3019,83.7625,0,U,66428,999,3705,.20438187E-3,.5367E-4,0
STARLINK-35533,2025-259H,2026-07-02T12:19:00.032448,15.27562288,.00015525,43.0028,345.7502,261.5661,98.5015,0,U,66429,999,3705,.24968645E-3,.6611E-4,0
STARLINK-35470,2025-259J,2026-07-02T12:13:27.115968,15.27575065,.00011529,43.0020,345.7196,238.2277,121.8462,0,U,66430,999,3705,.47151368E-3,.12733E-3,0
STARLINK-35439,2025-259K,2026-07-02T12:09:45.221760,15.27570115,.00010987,43.0026,345.7015,248.8560,111.2175,0,U,66431,999,3705,.45518715E-3,.12281E-3,0
STARLINK-35446,2025-259L,2026-07-02T12:07:54.209856,15.27539632,.00012297,43.0018,345.6902,232.8161,127.2578,0,U,66432,999,3705,.14407144E-2,.39547E-3,0
STARLINK-35457,2025-259M,2026-07-02T12:04:11.987328,15.27570291,.00014953,43.0023,345.6702,259.7593,100.3090,0,U,66433,999,3705,.34204035E-3,.9159E-4,0
STARLINK-35389,2025-259N,2026-07-02T12:02:21.079968,15.27576933,.0001485,43.0027,345.6609,255.6583,104.4104,0,U,66434,999,3705,.10827286E-2,.29649E-3,0
STARLINK-35502,2025-259P,2026-07-02T11:53:05.010432,15.27556050,.00013487,43.0024,345.6102,251.6360,108.4345,0,U,66435,999,3705,-.1773279E-3,-.5135E-4,0
STARLINK-35501,2025-259Q,2026-07-02T12:00:29.465856,15.27571219,.00011294,42.9999,345.6478,248.9521,111.1210,0,U,66436,999,3705,-.2204379E-4,-.868E-5,0
STARLINK-35474,2025-259R,2026-07-02T11:16:17.948352,15.27587923,.00005295,42.9985,346.2853,260.6667,99.4124,0,U,66437,999,3704,.26717451E-3,.7099E-4,0
STARLINK-34681,2025-259S,2026-07-02T12:41:12.849216,15.27569604,.00022012,43.0014,345.8640,282.0146,78.0459,0,U,66438,999,3694,.69400495E-3,.18879E-3,0
STARLINK-35327,2025-259T,2026-07-02T11:51:14.875488,15.27553263,.00010287,43.0011,345.6015,275.0389,85.0345,0,U,66439,999,3705,.64050538E-3,.1739E-3,0
STARLINK-35405,2025-259U,2026-07-02T12:33:48.240864,15.27577818,.00023961,42.9996,345.8213,283.7906,76.2679,0,U,66440,999,3705,.75349211E-3,.20529E-3,0
STARLINK-35426,2025-259V,2026-07-01T22:15:17.004960,15.27602188,.00016829,43.0028,349.0885,278.4279,81.6382,0,U,66441,999,3696,.74492524E-3,.20307E-3,0
STARLINK-34724,2025-259W,2026-07-02T11:47:45.441024,15.27566585,.00009012,43.0001,346.4441,267.4128,92.6620,0,U,66442,999,3704,.50599389E-3,.13682E-3,0
STARLINK-35219,2025-259X,2026-07-02T03:51:24.727104,15.27596638,.00011152,43.0037,348.2583,292.7381,67.3353,0,U,66443,999,3688,.85957572E-3,.23479E-3,0
STARLINK-35360,2025-259Y,2026-07-02T11:56:47.645952,15.27562732,.00015023,43.0016,345.6245,255.3911,104.6774,0,U,66444,999,3705,.34395025E-3,.921E-4,0
STARLINK-34698,2025-259Z,2026-07-02T11:36:39.372192,15.27569269,.00010714,43.0007,346.3848,272.2667,87.8062,0,U,66445,999,3693,.27012974E-4,.481E-5,0
STARLINK-34986,2025-259AA,2026-07-02T11:27:24.684192,15.27551420,.00016778,43.0006,346.3407,296.4000,63.6680,0,U,66446,999,3704,.47984721E-4,.1057E-4,0
STARLINK-34851,2025-259AB,2026-07-02T11:45:54.279648,15.27582843,.00004359,43.0003,346.4315,252.2706,107.8098,0,U,66447,999,3693,.2719429E-3,.7229E-4,0
STARLINK-35355,2025-259AC,2026-07-02T11:38:30.416064,15.27568940,.0000671,42.9981,346.3932,270.4553,89.6222,0,U,66448,999,3704,.44505268E-3,.12001E-3,0
STARLINK-34720,2025-259AD,2026-07-02T11:31:06.413376,15.27561408,.0000661,42.9986,346.3551,280.8699,79.2078,0,U,66449,999,3693,.96461315E-3,.26362E-3,0
STARLINK-35334,2025-259AE,2026-07-02T11:25:33.059712,15.27556375,.00012013,43.0005,346.3260,267.1349,92.9365,0,U,66450,999,3704,-.19513392E-3,-.5624E-4,0
VIASAT-3 F2,2025-261A,2026-07-02T06:45:47.426688,1.00271412,.00007231,0.0138,141.9959,29.2556,131.5440,0,U,66454,999,294,0,-.223E-5,0
STARLINK-35643,2025-262A,2026-07-01T22:13:19.179552,15.27598026,.00020033,43.0031,11.3518,259.2219,100.8407,0,U,66456,999,3637,.74446555E-3,.20292E-3,0
STARLINK-35466,2025-262B,2026-07-02T13:41:56.450400,15.27551320,.00015674,43.0015,7.5889,256.9877,103.0800,0,U,66457,999,3647,.78472551E-3,.21376E-3,0
STARLINK-35684,2025-262C,2026-07-02T13:45:38.809440,15.27594974,.00013809,43.0007,7.6048,242.1233,117.9479,0,U,66458,999,3647,.68961552E-3,.18772E-3,0
STARLINK-35449,2025-262D,2026-07-02T13:32:41.395200,15.27566205,.00010648,42.9998,7.5382,239.3710,120.7037,0,U,66459,999,3647,.64634331E-3,.17559E-3,0
STARLINK-35424,2025-262E,2026-07-02T13:04:56.150112,15.27563932,.00009862,43.0000,7.3943,289.0157,71.0588,0,U,66460,999,3647,.51128963E-3,.13827E-3,0
STARLINK-35132,2025-262F,2026-07-02T13:01:14.209248,15.27569574,.00008479,42.9987,7.3748,273.9947,86.0808,0,U,66461,999,3647,.46094519E-3,.1244E-3,0
